{
  "norad_id": 55926,
  "name": "STARLINK-5921",
  "history": [
    {
      "epoch": "2026-04-13T05:56:26.651616Z",
      "apogee_km": 574.3863288134789,
      "perigee_km": 569.7355343655763,
      "latitude_deg": 3.570756086536688e-05,
      "longitude_deg": -93.10878198110728,
      "height_km": 574.4735624240392,
      "semi_major_axis_km": 6950.197931589527,
      "eccentricity": 0.00033458,
      "inclination_deg": 70.0004,
      "raan_deg": 197.4433,
      "arg_perigee_deg": 270.374,
      "mean_anomaly_deg": 89.7036,
      "mean_motion_rev_day": 14.9832837
    },
    {
      "epoch": "2026-04-14T12:22:59.979072Z",
      "apogee_km": 574.3527504119393,
      "perigee_km": 569.8294029750659,
      "latitude_deg": -2.2632815268351658e-05,
      "longitude_deg": 165.80350093830705,
      "height_km": 574.6897176468893,
      "semi_major_axis_km": 6950.228076693502,
      "eccentricity": 0.00032541,
      "inclination_deg": 70.0024,
      "raan_deg": 194.2447,
      "arg_perigee_deg": 265.6699,
      "mean_anomaly_deg": 94.4088,
      "mean_motion_rev_day": 14.98318622
    },
    {
      "epoch": "2026-04-15T15:37:16.820832Z",
      "apogee_km": 574.4624178796194,
      "perigee_km": 569.652883181453,
      "latitude_deg": 4.328013285008071e-05,
      "longitude_deg": 113.25452744179731,
      "height_km": 574.5007077962373,
      "semi_major_axis_km": 6950.194650530536,
      "eccentricity": 0.000346,
      "inclination_deg": 70.0003,
      "raan_deg": 191.3845,
      "arg_perigee_deg": 269.6392,
      "mean_anomaly_deg": 90.4371,
      "mean_motion_rev_day": 14.98329431
    },
    {
      "epoch": "2026-04-16T14:03:10.043424Z",
      "apogee_km": 574.5063122159909,
      "perigee_km": 569.6300482615352,
      "latitude_deg": -4.3263102413140796e-06,
      "longitude_deg": 133.50522426870378,
      "height_km": 574.5152586280817,
      "semi_major_axis_km": 6950.205180238762,
      "eccentricity": 0.0003508,
      "inclination_deg": 70.0003,
      "raan_deg": 189.0282,
      "arg_perigee_deg": 269.5507,
      "mean_anomaly_deg": 90.525,
      "mean_motion_rev_day": 14.98326026
    },
    {
      "epoch": "2026-04-17T22:05:50.966592Z",
      "apogee_km": 574.5107709015037,
      "perigee_km": 569.5936510385263,
      "latitude_deg": 3.1129801614143716e-05,
      "longitude_deg": 8.1522966500711,
      "height_km": 574.4616129131338,
      "semi_major_axis_km": 6950.189210970015,
      "eccentricity": 0.00035374,
      "inclination_deg": 70.0004,
      "raan_deg": 185.6618,
      "arg_perigee_deg": 270.4332,
      "mean_anomaly_deg": 89.6422,
      "mean_motion_rev_day": 14.9833119
    },
    {
      "epoch": "2026-04-18T14:07:11.165088Z",
      "apogee_km": 574.5587205014463,
      "perigee_km": 569.5240112931897,
      "latitude_deg": 1.0219303637624391e-07,
      "longitude_deg": 125.4755135559786,
      "height_km": 574.4975747780406,
      "semi_major_axis_km": 6950.178365897317,
      "eccentricity": 0.0003622,
      "inclination_deg": 69.9998,
      "raan_deg": 183.9772,
      "arg_perigee_deg": 269.3588,
      "mean_anomaly_deg": 90.7156,
      "mean_motion_rev_day": 14.98334697
    },
    {
      "epoch": "2026-04-19T14:09:12.330720Z",
      "apogee_km": 574.5123438969231,
      "perigee_km": 569.5888310099708,
      "latitude_deg": -1.2834188833337323e-05,
      "longitude_deg": 121.46072410283989,
      "height_km": 574.4724455938389,
      "semi_major_axis_km": 6950.187587453446,
      "eccentricity": 0.0003542,
      "inclination_deg": 70.0003,
      "raan_deg": 181.4543,
      "arg_perigee_deg": 270.1428,
      "mean_anomaly_deg": 89.9325,
      "mean_motion_rev_day": 14.98331715
    }
  ]
}